{"type": "FeatureCollection", "features": [ {"type": "Feature", "properties": {"norad_id": 29892, "name": "FENGYUN 1C DEB", "group": "fengyun-1c-debris", "lat": -18.695251680578977, "lon": -41.74445675823026, "alt_km": 760.4843493202598, "timestamp": "2025-12-19T10:50:01.473096+00:00", "meta": {"OBJECT_NAME": "FENGYUN 1C DEB", "OBJECT_ID": "1999-025GN", "EPOCH": "2025-12-18T22:43:48.792000", "MEAN_MOTION": 14.32300676, "ECCENTRICITY": 0.01918425, "INCLINATION": 99.1802, "RA_OF_ASC_NODE": 140.8586, "ARG_OF_PERICENTER": 279.3836, "MEAN_ANOMALY": 202.6726, "EPHEMERIS_TYPE": 0, "CLASSIFICATION_TYPE": "U", "NORAD_CAT_ID": 29892, "ELEMENT_SET_NO": 999, "REV_AT_EPOCH": 96738, "BSTAR": 0.0024877447, "MEAN_MOTION_DOT": 8.185e-05, "MEAN_MOTION_DDOT": 0}, "tle": {"line1": "1 29892U 99025GN  25352.94709250  .00008185  00000+0  24877-2 0  9999", "line2": "2 29892  99.1802 140.8586 0191842 279.3836 202.6726 14.32300676967386"}}, "geometry": {"type": "Point", "coordinates": [-41.74445675823026, -18.695251680578977]}}, {"type": "Feature", "properties": {"norad_id": 29893, "name": "FENGYUN 1C DEB", "group": "fengyun-1c-debris", "lat": 49.16686072487292, "lon": -81.09880082760348, "alt_km": 834.1029563091834, "timestamp": "2025-12-19T10:50:01.473107+00:00", "meta": {"OBJECT_NAME": "FENGYUN 1C DEB", "OBJECT_ID": "1999-025GP", "EPOCH": "2025-12-18T20:52:19.419744", "MEAN_MOTION": 13.79464282, "ECCENTRICITY": 0.01738555, "INCLINATION": 98.5533, "RA_OF_ASC_NODE": 88.3464, "ARG_OF_PERICENTER": 136.8957, "MEAN_ANOMALY": 345.9256, "EPHEMERIS_TYPE": 0, "CLASSIFICATION_TYPE": "U", "NORAD_CAT_ID": 29893, "ELEMENT_SET_NO": 999, "REV_AT_EPOCH": 95224, "BSTAR": 0.00016222946, "MEAN_MOTION_DOT": 1.5e-06, "MEAN_MOTION_DDOT": 0}, "tle": {"line1": "1 29893U 99025GP  25352.86966921  .00000150  00000+0  16223-3 0  9992", "line2": "2 29893  98.5533  88.3464 0173855 136.8957 345.9256 13.79464282952249"}}, "geometry": {"type": "Point", "coordinates": [-81.09880082760348, 49.16686072487292]}}, {"type": "Feature", "properties": {"norad_id": 29894, "name": "FENGYUN 1C DEB", "group": "fengyun-1c-debris", "lat": -15.72523153883624, "lon": -134.9024812968669, "alt_km": 1085.9607807773627, "timestamp": "2025-12-19T10:50:01.473117+00:00", "meta": {"OBJECT_NAME": "FENGYUN 1C DEB", "OBJECT_ID": "1999-025GQ", "EPOCH": "2025-12-18T15:29:21.422976", "MEAN_MOTION": 13.80979602, "ECCENTRICITY": 0.01682093, "INCLINATION": 99.4853, "RA_OF_ASC_NODE": 46.9862, "ARG_OF_PERICENTER": 29.4527, "MEAN_ANOMALY": 120.9733, "EPHEMERIS_TYPE": 0, "CLASSIFICATION_TYPE": "U", "NORAD_CAT_ID": 29894, "ELEMENT_SET_NO": 999, "REV_AT_EPOCH": 95158, "BSTAR": 0.00045556095, "MEAN_MOTION_DOT": 4.9e-06, "MEAN_MOTION_DDOT": 0}, "tle": {"line1": "1 29894U 99025GQ  25352.64538684  .00000490  00000+0  45556-3 0  9998", "line2": "2 29894  99.4853  46.9862 0168209  29.4527 120.9733 13.80979602951580"}}, "geometry": {"type": "Point", "coordinates": [-134.9024812968669, -15.72523153883624]}}, {"type": "Feature", "properties": {"norad_id": 29895, "name": "FENGYUN 1C DEB", "group": "fengyun-1c-debris", "lat": -50.04885663271949, "lon": -89.52273228726075, "alt_km": 881.8247979231637, "timestamp": "2025-12-19T10:50:01.473127+00:00", "meta": {"OBJECT_NAME": "FENGYUN 1C DEB", "OBJECT_ID": "1999-025GR", "EPOCH": "2025-12-18T20:38:09.826944", "MEAN_MOTION": 14.08291583, "ECCENTRICITY": 0.02994941, "INCLINATION": 99.8853, "RA_OF_ASC_NODE": 101.8439, "ARG_OF_PERICENTER": 326.9283, "MEAN_ANOMALY": 149.9495, "EPHEMERIS_TYPE": 0, "CLASSIFICATION_TYPE": "U", "NORAD_CAT_ID": 29895, "ELEMENT_SET_NO": 999, "REV_AT_EPOCH": 95610, "BSTAR": 0.0015587638, "MEAN_MOTION_DOT": 3.969e-05, "MEAN_MOTION_DDOT": 0}, "tle": {"line1": "1 29895U 99025GR  25352.85983596  .00003969  00000+0  15588-2 0  9993", "line2": "2 29895  99.8853 101.8439 0299494 326.9283 149.9495 14.08291583956106"}}, "geometry": {"type": "Point", "coordinates": [-89.52273228726075, -50.04885663271949]}}, {"type": "Feature", "properties": {"norad_id": 29896, "name": "FENGYUN 1C DEB", "group": "fengyun-1c-debris", "lat": -16.09603867041937, "lon": -112.2596693209397, "alt_km": 1050.2138478247334, "timestamp": "2025-12-19T10:50:01.473137+00:00", "meta": {"OBJECT_NAME": "FENGYUN 1C DEB", "OBJECT_ID": "1999-025GS", "EPOCH": "2025-12-18T03:59:16.796832", "MEAN_MOTION": 13.65373964, "ECCENTRICITY": 0.02399191, "INCLINATION": 99.4225, "RA_OF_ASC_NODE": 243.7446, "ARG_OF_PERICENTER": 87.964, "MEAN_ANOMALY": 64.4438, "EPHEMERIS_TYPE": 0, "CLASSIFICATION_TYPE": "U", "NORAD_CAT_ID": 29896, "ELEMENT_SET_NO": 999, "REV_AT_EPOCH": 94116, "BSTAR": 0.00058264539, "MEAN_MOTION_DOT": 5.36e-06, "MEAN_MOTION_DDOT": 0}, "tle": {"line1": "1 29896U 99025GS  25352.16616663  .00000536  00000+0  58265-3 0  9993", "line2": "2 29896  99.4225 243.7446 0239919  87.9640  64.4438 13.65373964941161"}}, "geometry": {"type": "Point", "coordinates": [-112.2596693209397, -16.09603867041937]}}, {"type": "Feature", "properties": {"norad_id": 29897, "name": "FENGYUN 1C DEB", "group": "fengyun-1c-debris", "lat": 64.23616310976097, "lon": -161.42841726751897, "alt_km": 910.5234178135215, "timestamp": "2025-12-19T10:50:01.473147+00:00", "meta": {"OBJECT_NAME": "FENGYUN 1C DEB", "OBJECT_ID": "1999-025GT", "EPOCH": "2025-12-17T14:25:33.441600", "MEAN_MOTION": 13.57200283, "ECCENTRICITY": 0.02966784, "INCLINATION": 98.6298, "RA_OF_ASC_NODE": 215.2843, "ARG_OF_PERICENTER": 126.0243, "MEAN_ANOMALY": 266.6756, "EPHEMERIS_TYPE": 0, "CLASSIFICATION_TYPE": "U", "NORAD_CAT_ID": 29897, "ELEMENT_SET_NO": 999, "REV_AT_EPOCH": 93006, "BSTAR": 0.0017231343, "MEAN_MOTION_DOT": 1.601e-05, "MEAN_MOTION_DDOT": 0}, "tle": {"line1": "1 29897U 99025GT  25351.60108150  .00001601  00000+0  17231-2 0  9990", "line2": "2 29897  98.6298 215.2843 0296678 126.0243 266.6756 13.57200283930067"}}, "geometry": {"type": "Point", "coordinates": [-161.42841726751897, 64.23616310976097]}}, {"type": "Feature", "properties": {"norad_id": 29898, "name": "FENGYUN 1C DEB", "group": "fengyun-1c-debris", "lat": 64.28500503447705, "lon": -32.61996369302027, "alt_km": 1063.9334710600097, "timestamp": "2025-12-19T10:50:01.473157+00:00", "meta": {"OBJECT_NAME": "FENGYUN 1C DEB", "OBJECT_ID": "1999-025GU", "EPOCH": "2025-12-18T10:42:59.169024", "MEAN_MOTION": 13.7034042, "ECCENTRICITY": 0.04270111, "INCLINATION": 98.2224, "RA_OF_ASC_NODE": 343.989, "ARG_OF_PERICENTER": 173.8672, "MEAN_ANOMALY": 341.8446, "EPHEMERIS_TYPE": 0, "CLASSIFICATION_TYPE": "U", "NORAD_CAT_ID": 29898, "ELEMENT_SET_NO": 999, "REV_AT_EPOCH": 93239, "BSTAR": 0.0013401766, "MEAN_MOTION_DOT": 2.226e-05, "MEAN_MOTION_DDOT": 0}, "tle": {"line1": "1 29898U 99025GU  25352.44651816  .00002226  00000+0  13402-2 0  9996", "line2": "2 29898  98.2224 343.9890 0427011 173.8672 341.8446 13.70340420932390"}}, "geometry": {"type": "Point", "coordinates": [-32.61996369302027, 64.28500503447705]}}, {"type": "Feature", "properties": {"norad_id": 29899, "name": "FENGYUN 1C DEB", "group": "fengyun-1c-debris", "lat": 41.128239168531884, "lon": 140.33229005237396, "alt_km": 865.6241540314331, "timestamp": "2025-12-19T10:50:01.473168+00:00", "meta": {"OBJECT_NAME": "FENGYUN 1C DEB", "OBJECT_ID": "1999-025GV", "EPOCH": "2025-12-18T22:04:10.309728", "MEAN_MOTION": 13.37494251, "ECCENTRICITY": 0.03535016, "INCLINATION": 98.6618, "RA_OF_ASC_NODE": 147.5275, "ARG_OF_PERICENTER": 63.477, "MEAN_ANOMALY": 300.2151, "EPHEMERIS_TYPE": 0, "CLASSIFICATION_TYPE": "U", "NORAD_CAT_ID": 29899, "ELEMENT_SET_NO": 999, "REV_AT_EPOCH": 92167, "BSTAR": 0.00016012299, "MEAN_MOTION_DOT": 8.8e-07, "MEAN_MOTION_DDOT": 0}, "tle": {"line1": "1 29899U 99025GV  25352.91956377  .00000088  00000+0  16012-3 0  9994", "line2": "2 29899  98.6618 147.5275 0353501  63.4770 300.2151 13.37494251921678"}}, "geometry": {"type": "Point", "coordinates": [140.33229005237396, 41.128239168531884]}}, {"type": "Feature", "properties": {"norad_id": 29901, "name": "FENGYUN 1C DEB", "group": "fengyun-1c-debris", "lat": 51.315367613950734, "lon": -5.607252159762182, "alt_km": 1346.0012052615994, "timestamp": "2025-12-19T10:50:01.473178+00:00", "meta": {"OBJECT_NAME": "FENGYUN 1C DEB", "OBJECT_ID": "1999-025GX", "EPOCH": "2025-12-18T11:02:05.430912", "MEAN_MOTION": 13.33257119, "ECCENTRICITY": 0.03791653, "INCLINATION": 98.7445, "RA_OF_ASC_NODE": 162.4626, "ARG_OF_PERICENTER": 271.0392, "MEAN_ANOMALY": 142.5008, "EPHEMERIS_TYPE": 0, "CLASSIFICATION_TYPE": "U", "NORAD_CAT_ID": 29901, "ELEMENT_SET_NO": 999, "REV_AT_EPOCH": 91995, "BSTAR": 0.00037509071, "MEAN_MOTION_DOT": 2.38e-06, "MEAN_MOTION_DDOT": 0}, "tle": {"line1": "1 29901U 99025GX  25352.45978508  .00000238  00000+0  37509-3 0  9998", "line2": "2 29901  98.7445 162.4626 0379165 271.0392 142.5008 13.33257119919950"}}, "geometry": {"type": "Point", "coordinates": [-5.607252159762182, 51.315367613950734]}}, {"type": "Feature", "properties": {"norad_id": 29904, "name": "FENGYUN 1C DEB", "group": "fengyun-1c-debris", "lat": 32.990940092488565, "lon": -142.3152856604674, "alt_km": 871.6867120826055, "timestamp": "2025-12-19T10:50:01.473188+00:00", "meta": {"OBJECT_NAME": "FENGYUN 1C DEB", "OBJECT_ID": "1999-025HA", "EPOCH": "2025-12-18T14:11:40.070400", "MEAN_MOTION": 14.44501727, "ECCENTRICITY": 0.02074975, "INCLINATION": 99.041, "RA_OF_ASC_NODE": 30.8371, "ARG_OF_PERICENTER": 301.2172, "MEAN_ANOMALY": 56.8828, "EPHEMERIS_TYPE": 0, "CLASSIFICATION_TYPE": "U", "NORAD_CAT_ID": 29904, "ELEMENT_SET_NO": 999, "REV_AT_EPOCH": 99148, "BSTAR": 0.00032859687, "MEAN_MOTION_DOT": 1.414e-05, "MEAN_MOTION_DDOT": 0}, "tle": {"line1": "1 29904U 99025HA  25352.59143600  .00001414  00000+0  32860-3 0  9995", "line2": "2 29904  99.0410  30.8371 0207497 301.2172  56.8828 14.44501727991489"}}, "geometry": {"type": "Point", "coordinates": [-142.3152856604674, 32.990940092488565]}}]}